GLOBALSTAR M045         
1 25676U 99019A   26001.71806117 -.00000087  00000+0  54218-4 0  9993
2 25676  51.9970  99.4086 0000699 140.9594  24.8508 12.27070618217765
GLOBALSTAR M019         
1 25677U 99019B   26001.96787082  .00000014  00000+0  10816-2 0  9993
2 25677  51.9868 243.0554 0002027  32.4624  68.8819 12.13881710209284
GLOBALSTAR M044         
1 25678U 99019C   26001.61286917 -.00000008  00000+0  10600-2 0  9992
2 25678  51.9941 220.2237 0007183  63.7668 327.1915 11.90263739194959
GLOBALSTAR M042         
1 25679U 99019D   26001.99474916 -.00000016  00000+0  71278-3 0  9990
2 25679  51.9987 209.7108 0003207  12.3422 139.4567 12.22095697209563
GLOBALSTAR M025         
1 25770U 99031A   26001.44128069 -.00000056  00000+0  34463-3 0  9990
2 25770  51.9837  59.9996 0002665 119.5764 344.7933 11.22559672503972
GLOBALSTAR M049         
1 25771U 99031B   26001.71718312 -.00000007  00000+0  20145-2 0  9994
2 25771  51.9876 104.0997 0002436   8.5177 351.5660 11.12124057139512
GLOBALSTAR M047         
1 25772U 99031C   26001.48790524 -.00000064  00000+0  14916-3 0  9997
2 25772  51.9844  82.6435 0016185 240.9580 118.9605 11.31931913493562
GLOBALSTAR M052         
1 25773U 99031D   26001.79555545 -.00000063  00000+0  84670-4 0  9998
2 25773  51.9829 209.8057 0003424 121.0806 323.7135 11.15063178500666
